[
  {
    "CCSDS_OMM_VERS": "3.0",
    "COMMENT": "GENERATED VIA SPACE-TRACK.ORG API",
    "CREATION_DATE": "2025-11-11T04:56:40",
    "ORIGINATOR": "18 SPCS",
    "OBJECT_NAME": "IRIDIUM 33 DEB",
    "OBJECT_ID": "1997-051ACD",
    "CENTER_NAME": "EARTH",
    "REF_FRAME": "TEME",
    "TIME_SYSTEM": "UTC",
    "MEAN_ELEMENT_THEORY": "SGP4",
    "EPOCH": "2025-11-09T08:35:11.738400",
    "MEAN_MOTION": "14.95226370",
    "ECCENTRICITY": "0.00093361",
    "INCLINATION": "86.3413",
    "RA_OF_ASC_NODE": "348.7724",
    "ARG_OF_PERICENTER": "69.2390",
    "MEAN_ANOMALY": "304.7916",
    "EPHEMERIS_TYPE": "0",
    "CLASSIFICATION_TYPE": "U",
    "NORAD_CAT_ID": "46971",
    "ELEMENT_SET_NO": "999",
    "REV_AT_EPOCH": "63731",
    "BSTAR": "0.00295636750000",
    "MEAN_MOTION_DOT": "0.00032664",
    "MEAN_MOTION_DDOT": "0.0000000000000",
    "SEMIMAJOR_AXIS": "6959.807",
    "PERIOD": "96.306",
    "APOAPSIS": "588.170",
    "PERIAPSIS": "575.174",
    "OBJECT_TYPE": "DEBRIS",
    "RCS_SIZE": "SMALL",
    "COUNTRY_CODE": "US",
    "LAUNCH_DATE": "1997-09-14",
    "SITE": "TTMTR",
    "DECAY_DATE": null,
    "FILE": "4877201",
    "GP_ID": "302265831",
    "TLE_LINE0": "0 IRIDIUM 33 DEB",
    "TLE_LINE1": "1 46971U 97051ACD 25313.35777475  .00032664  00000-0  29564-2 0  9997",
    "TLE_LINE2": "2 46971  86.3413 348.7724 0009336  69.2390 304.7916 14.95226370637318"
  },
  {
    "CCSDS_OMM_VERS": "3.0",
    "COMMENT": "GENERATED VIA SPACE-TRACK.ORG API",
    "CREATION_DATE": "2025-10-19T10:30:26",
    "ORIGINATOR": "18 SPCS",
    "OBJECT_NAME": "IRIDIUM 33 DEB",
    "OBJECT_ID": "1997-051ACE",
    "CENTER_NAME": "EARTH",
    "REF_FRAME": "TEME",
    "TIME_SYSTEM": "UTC",
    "MEAN_ELEMENT_THEORY": "SGP4",
    "EPOCH": "2025-10-19T03:28:16.129632",
    "MEAN_MOTION": "14.50293738",
    "ECCENTRICITY": "0.00073344",
    "INCLINATION": "86.3855",
    "RA_OF_ASC_NODE": "62.8917",
    "ARG_OF_PERICENTER": "294.5090",
    "MEAN_ANOMALY": "191.6572",
    "EPHEMERIS_TYPE": "0",
    "CLASSIFICATION_TYPE": "U",
    "NORAD_CAT_ID": "46972",
    "ELEMENT_SET_NO": "999",
    "REV_AT_EPOCH": "60781",
    "BSTAR": "0.00127687690000",
    "MEAN_MOTION_DOT": "0.00004995",
    "MEAN_MOTION_DDOT": "0.0000000000000",
    "SEMIMAJOR_AXIS": "7102.826",
    "PERIOD": "99.290",
    "APOAPSIS": "729.901",
    "PERIAPSIS": "719.482",
    "OBJECT_TYPE": "DEBRIS",
    "RCS_SIZE": "SMALL",
    "COUNTRY_CODE": "US",
    "LAUNCH_DATE": "1997-09-14",
    "SITE": "TTMTR",
    "DECAY_DATE": null,
    "FILE": "4849597",
    "GP_ID": "300498528",
    "TLE_LINE0": "0 IRIDIUM 33 DEB",
    "TLE_LINE1": "1 46972U 97051ACE 25292.14463113  .00004995  00000-0  12769-2 0  9997",
    "TLE_LINE2": "2 46972  86.3855  62.8917 0007334 294.5090 191.6572 14.50293738607819"
  },
  {
    "CCSDS_OMM_VERS": "3.0",
    "COMMENT": "GENERATED VIA SPACE-TRACK.ORG API",
    "CREATION_DATE": "2023-12-13T02:56:16",
    "ORIGINATOR": "18 SPCS",
    "OBJECT_NAME": "IRIDIUM 33 DEB",
    "OBJECT_ID": "1997-051ACF",
    "CENTER_NAME": "EARTH",
    "REF_FRAME": "TEME",
    "TIME_SYSTEM": "UTC",
    "MEAN_ELEMENT_THEORY": "SGP4",
    "EPOCH": "2023-12-10T02:46:43.564800",
    "MEAN_MOTION": "14.46811132",
    "ECCENTRICITY": "0.01260290",
    "INCLINATION": "86.3675",
    "RA_OF_ASC_NODE": "123.5538",
    "ARG_OF_PERICENTER": "168.8034",
    "MEAN_ANOMALY": "191.6023",
    "EPHEMERIS_TYPE": "0",
    "CLASSIFICATION_TYPE": "U",
    "NORAD_CAT_ID": "46973",
    "ELEMENT_SET_NO": "999",
    "REV_AT_EPOCH": "49430",
    "BSTAR": "0.00892010000000",
    "MEAN_MOTION_DOT": "0.00035840",
    "MEAN_MOTION_DDOT": "0.0000000000000",
    "SEMIMAJOR_AXIS": "7114.220",
    "PERIOD": "99.529",
    "APOAPSIS": "825.745",
    "PERIAPSIS": "646.425",
    "OBJECT_TYPE": "DEBRIS",
    "RCS_SIZE": "SMALL",
    "COUNTRY_CODE": "US",
    "LAUNCH_DATE": "1997-09-14",
    "SITE": "TTMTR",
    "DECAY_DATE": "2024-08-25",
    "FILE": "4134943",
    "GP_ID": "244613218",
    "TLE_LINE0": "0 IRIDIUM 33 DEB",
    "TLE_LINE1": "1 46973U 97051ACF 23344.11578200  .00035840  00000-0  89201-2 0  9993",
    "TLE_LINE2": "2 46973  86.3675 123.5538 0126029 168.8034 191.6023 14.46811132494306"
  },
  {
    "CCSDS_OMM_VERS": "3.0",
    "COMMENT": "GENERATED VIA SPACE-TRACK.ORG API",
    "CREATION_DATE": "2025-11-26T18:00:39",
    "ORIGINATOR": "18 SPCS",
    "OBJECT_NAME": "IRIDIUM 33 DEB",
    "OBJECT_ID": "1997-051ACG",
    "CENTER_NAME": "EARTH",
    "REF_FRAME": "TEME",
    "TIME_SYSTEM": "UTC",
    "MEAN_ELEMENT_THEORY": "SGP4",
    "EPOCH": "2025-11-26T03:46:23.687040",
    "MEAN_MOTION": "14.43625981",
    "ECCENTRICITY": "0.00956822",
    "INCLINATION": "86.3002",
    "RA_OF_ASC_NODE": "112.5080",
    "ARG_OF_PERICENTER": "241.0905",
    "MEAN_ANOMALY": "118.0674",
    "EPHEMERIS_TYPE": "0",
    "CLASSIFICATION_TYPE": "U",
    "NORAD_CAT_ID": "46974",
    "ELEMENT_SET_NO": "999",
    "REV_AT_EPOCH": "57269",
    "BSTAR": "0.00442187500000",
    "MEAN_MOTION_DOT": "0.00015892",
    "MEAN_MOTION_DDOT": "0.0000000000000",
    "SEMIMAJOR_AXIS": "7124.680",
    "PERIOD": "99.749",
    "APOAPSIS": "814.716",
    "PERIAPSIS": "678.375",
    "OBJECT_TYPE": "DEBRIS",
    "RCS_SIZE": "SMALL",
    "COUNTRY_CODE": "US",
    "LAUNCH_DATE": "1997-09-14",
    "SITE": "TTMTR",
    "DECAY_DATE": null,
    "FILE": "4903404",
    "GP_ID": "303659944",
    "TLE_LINE0": "0 IRIDIUM 33 DEB",
    "TLE_LINE1": "1 46974U 97051ACG 25330.15721860  .00015892  00000-0  44219-2 0  9992",
    "TLE_LINE2": "2 46974  86.3002 112.5080 0095682 241.0905 118.0674 14.43625981572698"
  },
  {
    "CCSDS_OMM_VERS": "3.0",
    "COMMENT": "GENERATED VIA SPACE-TRACK.ORG API",
    "CREATION_DATE": "2023-04-27T20:46:29",
    "ORIGINATOR": "18 SPCS",
    "OBJECT_NAME": "IRIDIUM 33 DEB",
    "OBJECT_ID": "1997-051ACH",
    "CENTER_NAME": "EARTH",
    "REF_FRAME": "TEME",
    "TIME_SYSTEM": "UTC",
    "MEAN_ELEMENT_THEORY": "SGP4",
    "EPOCH": "2023-04-19T02:20:44.920032",
    "MEAN_MOTION": "14.97021274",
    "ECCENTRICITY": "0.00179780",
    "INCLINATION": "86.3823",
    "RA_OF_ASC_NODE": "53.2661",
    "ARG_OF_PERICENTER": "32.7406",
    "MEAN_ANOMALY": "338.3206",
    "EPHEMERIS_TYPE": "0",
    "CLASSIFICATION_TYPE": "U",
    "NORAD_CAT_ID": "46975",
    "ELEMENT_SET_NO": "999",
    "REV_AT_EPOCH": "45538",
    "BSTAR": "0.01386500000000",
    "MEAN_MOTION_DOT": "0.00163615",
    "MEAN_MOTION_DDOT": "0.0000000000000",
    "SEMIMAJOR_AXIS": "6954.243",
    "PERIOD": "96.191",
    "APOAPSIS": "588.610",
    "PERIAPSIS": "563.606",
    "OBJECT_TYPE": "DEBRIS",
    "RCS_SIZE": "SMALL",
    "COUNTRY_CODE": "US",
    "LAUNCH_DATE": "1997-09-14",
    "SITE": "TTMTR",
    "DECAY_DATE": "2023-07-07",
    "FILE": "3894751",
    "GP_ID": "230833608",
    "TLE_LINE0": "0 IRIDIUM 33 DEB",
    "TLE_LINE1": "1 46975U 97051ACH 23109.09774213  .00163615  00000-0  13865-1 0  9997",
    "TLE_LINE2": "2 46975  86.3823  53.2661 0017978  32.7406 338.3206 14.97021274455387"
  },
  {
    "CCSDS_OMM_VERS": "3.0",
    "COMMENT": "GENERATED VIA SPACE-TRACK.ORG API",
    "CREATION_DATE": "2025-04-09T17:16:24",
    "ORIGINATOR": "18 SPCS",
    "OBJECT_NAME": "IRIDIUM 33 DEB",
    "OBJECT_ID": "1997-051ACJ",
    "CENTER_NAME": "EARTH",
    "REF_FRAME": "TEME",
    "TIME_SYSTEM": "UTC",
    "MEAN_ELEMENT_THEORY": "SGP4",
    "EPOCH": "2023-12-31T19:23:23.257248",
    "MEAN_MOTION": "14.23906170",
    "ECCENTRICITY": "0.01575990",
    "INCLINATION": "86.4371",
    "RA_OF_ASC_NODE": "178.8987",
    "ARG_OF_PERICENTER": "270.2225",
    "MEAN_ANOMALY": "154.0287",
    "EPHEMERIS_TYPE": "0",
    "CLASSIFICATION_TYPE": "U",
    "NORAD_CAT_ID": "46976",
    "ELEMENT_SET_NO": "999",
    "REV_AT_EPOCH": "51544",
    "BSTAR": "0.00565610000000",
    "MEAN_MOTION_DOT": "0.00014770",
    "MEAN_MOTION_DDOT": "0.0000000000000",
    "SEMIMAJOR_AXIS": "7190.310",
    "PERIOD": "101.130",
    "APOAPSIS": "925.493",
    "PERIAPSIS": "698.856",
    "OBJECT_TYPE": "DEBRIS",
    "RCS_SIZE": "SMALL",
    "COUNTRY_CODE": "US",
    "LAUNCH_DATE": "1997-09-14",
    "SITE": "TTMTR",
    "DECAY_DATE": null,
    "FILE": "4696529",
    "GP_ID": "285204124",
    "TLE_LINE0": "0 IRIDIUM 33 DEB",
    "TLE_LINE1": "1 46976U 97051ACJ 23365.80790807  .00014770  00000-0  56561-2 0  9996",
    "TLE_LINE2": "2 46976  86.4371 178.8987 0157599 270.2225 154.0287 14.23906170515446"
  },
  {
    "CCSDS_OMM_VERS": "3.0",
    "COMMENT": "GENERATED VIA SPACE-TRACK.ORG API",
    "CREATION_DATE": "2025-04-09T17:06:23",
    "ORIGINATOR": "18 SPCS",
    "OBJECT_NAME": "IRIDIUM 33 DEB",
    "OBJECT_ID": "1997-051ACK",
    "CENTER_NAME": "EARTH",
    "REF_FRAME": "TEME",
    "TIME_SYSTEM": "UTC",
    "MEAN_ELEMENT_THEORY": "SGP4",
    "EPOCH": "2023-01-19T05:44:57.091488",
    "MEAN_MOTION": "14.53207203",
    "ECCENTRICITY": "0.00373740",
    "INCLINATION": "86.1726",
    "RA_OF_ASC_NODE": "10.6160",
    "ARG_OF_PERICENTER": "12.1803",
    "MEAN_ANOMALY": "348.0297",
    "EPHEMERIS_TYPE": "0",
    "CLASSIFICATION_TYPE": "U",
    "NORAD_CAT_ID": "46977",
    "ELEMENT_SET_NO": "999",
    "REV_AT_EPOCH": "43553",
    "BSTAR": "0.00496760000000",
    "MEAN_MOTION_DOT": "0.00020837",
    "MEAN_MOTION_DDOT": "0.0000000000000",
    "SEMIMAJOR_AXIS": "7093.330",
    "PERIOD": "99.091",
    "APOAPSIS": "741.705",
    "PERIAPSIS": "688.684",
    "OBJECT_TYPE": "DEBRIS",
    "RCS_SIZE": "SMALL",
    "COUNTRY_CODE": "US",
    "LAUNCH_DATE": "1997-09-14",
    "SITE": "TTMTR",
    "DECAY_DATE": "2024-12-12",
    "FILE": "4695833",
    "GP_ID": "285187026",
    "TLE_LINE0": "0 IRIDIUM 33 DEB",
    "TLE_LINE1": "1 46977U 97051ACK 23019.23954967  .00020837  00000-0  49676-2 0  9999",
    "TLE_LINE2": "2 46977  86.1726  10.6160 0037374  12.1803 348.0297 14.53207203435538"
  }
]